IRIDIUM 106             
1 41917U 17003A   24059.57090672  .00000177  00000+0  56170-4 0  9996
2 41917  86.3911  79.4177 0002502  97.5586 262.5894 14.34217986372863
IRIDIUM 103             
1 41918U 17003B   24059.76752306  .00000060  00000+0  14470-4 0  9995
2 41918  86.3912  79.2375 0001897  94.8356 265.3056 14.34216787372920
IRIDIUM 109             
1 41919U 17003C   24059.56456318  .00000082  00000+0  22231-4 0  9996
2 41919  86.3912  79.3681 0002041  86.7001 273.4428 14.34217544372858
IRIDIUM 102             
1 41920U 17003D   24059.60262042  .00000312  00000+0  10427-3 0  9991
2 41920  86.3906  79.2934 0002065  86.3267 273.8165 14.34217436372941
IRIDIUM 105             
1 41921U 17003E   24059.50356467  .00000239  00000+0  78119-4 0  9997
2 41921  86.3949  47.7345 0002214  89.5330 270.6119 14.34209488374783
IRIDIUM 104             
1 41922U 17003F   24059.54553336  .00000080  00000+0  21681-4 0  9992
2 41922  86.3912  79.3473 0002014  90.1821 269.9606 14.34216914372926
IRIDIUM 114             
1 41923U 17003G   24059.55187474  .00000110  00000+0  32298-4 0  9990
2 41923  86.3910  79.3308 0002464  95.3244 264.8233 14.34216828372909
IRIDIUM 108             
1 41924U 17003H   24059.51039933  .00000052  00000+0  11680-4 0  9990
2 41924  86.3944  47.6634 0002431  92.4928 267.6546 14.34217950374758
